{"type": "FeatureCollection", "features": [ {"type": "Feature", "properties": {"norad_id": 29868, "name": "FENGYUN 1C DEB", "group": "fengyun-1c-debris", "lat": -30.580846365943266, "lon": 34.71339228664201, "alt_km": 538.151458267751, "timestamp": "2025-12-10T04:57:29.890105+00:00", "meta": {"OBJECT_NAME": "FENGYUN 1C DEB", "OBJECT_ID": "1999-025FN", "EPOCH": "2025-12-09T19:36:05.097024", "MEAN_MOTION": 14.78364025, "ECCENTRICITY": 0.0197188, "INCLINATION": 97.9497, "RA_OF_ASC_NODE": 29.5914, "ARG_OF_PERICENTER": 13.5011, "MEAN_ANOMALY": 43.5473, "EPHEMERIS_TYPE": 0, "CLASSIFICATION_TYPE": "U", "NORAD_CAT_ID": 29868, "ELEMENT_SET_NO": 999, "REV_AT_EPOCH": 252, "BSTAR": 0.00099729, "MEAN_MOTION_DOT": 0.00010017, "MEAN_MOTION_DDOT": 0}, "tle": {"line1": "1 29868U 99025FN  25343.81672566  .00010017  00000+0  99729-3 0  9993", "line2": "2 29868  97.9497  29.5914 0197188  13.5011  43.5473 14.78364025  2520"}}, "geometry": {"type": "Point", "coordinates": [34.71339228664201, -30.580846365943266]}}, {"type": "Feature", "properties": {"norad_id": 29869, "name": "FENGYUN 1C DEB", "group": "fengyun-1c-debris", "lat": 40.75915170735322, "lon": -93.31441063831386, "alt_km": 707.7150148058308, "timestamp": "2025-12-10T04:57:29.890115+00:00", "meta": {"OBJECT_NAME": "FENGYUN 1C DEB", "OBJECT_ID": "1999-025FP", "EPOCH": "2025-12-09T18:52:06.448800", "MEAN_MOTION": 14.36872664, "ECCENTRICITY": 0.0087798, "INCLINATION": 98.8725, "RA_OF_ASC_NODE": 273.9901, "ARG_OF_PERICENTER": 19.7067, "MEAN_ANOMALY": 7.9112, "EPHEMERIS_TYPE": 0, "CLASSIFICATION_TYPE": "U", "NORAD_CAT_ID": 29869, "ELEMENT_SET_NO": 999, "REV_AT_EPOCH": 98778, "BSTAR": 0.00078983, "MEAN_MOTION_DOT": 2.393e-05, "MEAN_MOTION_DDOT": 0}, "tle": {"line1": "1 29869U 99025FP  25343.78618575  .00002393  00000+0  78983-3 0  9997", "line2": "2 29869  98.8725 273.9901 0087798  19.7067   7.9112 14.36872664987781"}}, "geometry": {"type": "Point", "coordinates": [-93.31441063831386, 40.75915170735322]}}, {"type": "Feature", "properties": {"norad_id": 29870, "name": "FENGYUN 1C DEB", "group": "fengyun-1c-debris", "lat": 37.764672882551714, "lon": 141.81989158810475, "alt_km": 746.4244712090413, "timestamp": "2025-12-10T04:57:29.890126+00:00", "meta": {"OBJECT_NAME": "FENGYUN 1C DEB", "OBJECT_ID": "1999-025FQ", "EPOCH": "2025-12-09T10:33:02.627136", "MEAN_MOTION": 14.28978976, "ECCENTRICITY": 0.01196553, "INCLINATION": 98.4595, "RA_OF_ASC_NODE": 314.4551, "ARG_OF_PERICENTER": 202.1563, "MEAN_ANOMALY": 317.3146, "EPHEMERIS_TYPE": 0, "CLASSIFICATION_TYPE": "U", "NORAD_CAT_ID": 29870, "ELEMENT_SET_NO": 999, "REV_AT_EPOCH": 98546, "BSTAR": 9.6196394e-05, "MEAN_MOTION_DOT": 2.19e-06, "MEAN_MOTION_DDOT": 0}, "tle": {"line1": "1 29870U 99025FQ  25343.43961374  .00000219  00000+0  96196-4 0  9991", "line2": "2 29870  98.4595 314.4551 0119655 202.1563 317.3146 14.28978976985465"}}, "geometry": {"type": "Point", "coordinates": [141.81989158810475, 37.764672882551714]}}, {"type": "Feature", "properties": {"norad_id": 29871, "name": "FENGYUN 1C DEB", "group": "fengyun-1c-debris", "lat": -31.185597839534253, "lon": -57.30858919346686, "alt_km": 790.5272284130824, "timestamp": "2025-12-10T04:57:29.890136+00:00", "meta": {"OBJECT_NAME": "FENGYUN 1C DEB", "OBJECT_ID": "1999-025FR", "EPOCH": "2025-12-09T14:55:21.074016", "MEAN_MOTION": 14.42609926, "ECCENTRICITY": 0.0058532, "INCLINATION": 98.9729, "RA_OF_ASC_NODE": 296.5885, "ARG_OF_PERICENTER": 116.6019, "MEAN_ANOMALY": 56.7647, "EPHEMERIS_TYPE": 0, "CLASSIFICATION_TYPE": "U", "NORAD_CAT_ID": 29871, "ELEMENT_SET_NO": 999, "REV_AT_EPOCH": 98656, "BSTAR": 0.0014512, "MEAN_MOTION_DOT": 4.875e-05, "MEAN_MOTION_DDOT": 0}, "tle": {"line1": "1 29871U 99025FR  25343.62177169  .00004875  00000+0  14512-2 0  9996", "line2": "2 29871  98.9729 296.5885 0058532 116.6019  56.7647 14.42609926986565"}}, "geometry": {"type": "Point", "coordinates": [-57.30858919346686, -31.185597839534253]}}, {"type": "Feature", "properties": {"norad_id": 29872, "name": "FENGYUN 1C DEB", "group": "fengyun-1c-debris", "lat": 2.78867793804048, "lon": -179.3496159310164, "alt_km": 899.6332009432335, "timestamp": "2025-12-10T04:57:29.890146+00:00", "meta": {"OBJECT_NAME": "FENGYUN 1C DEB", "OBJECT_ID": "1999-025FS", "EPOCH": "2025-12-08T23:45:09.246240", "MEAN_MOTION": 14.38922932, "ECCENTRICITY": 0.0235567, "INCLINATION": 98.3458, "RA_OF_ASC_NODE": 359.0556, "ARG_OF_PERICENTER": 324.9004, "MEAN_ANOMALY": 33.6853, "EPHEMERIS_TYPE": 0, "CLASSIFICATION_TYPE": "U", "NORAD_CAT_ID": 29872, "ELEMENT_SET_NO": 999, "REV_AT_EPOCH": 98538, "BSTAR": 0.00080962, "MEAN_MOTION_DOT": 3.399e-05, "MEAN_MOTION_DDOT": 0}, "tle": {"line1": "1 29872U 99025FS  25342.98969035  .00003399  00000+0  80962-3 0  9999", "line2": "2 29872  98.3458 359.0556 0235567 324.9004  33.6853 14.38922932985384"}}, "geometry": {"type": "Point", "coordinates": [-179.3496159310164, 2.78867793804048]}}, {"type": "Feature", "properties": {"norad_id": 29873, "name": "FENGYUN 1C DEB", "group": "fengyun-1c-debris", "lat": -80.53485272829477, "lon": -62.32961811243675, "alt_km": 876.9979457418158, "timestamp": "2025-12-10T04:57:29.890157+00:00", "meta": {"OBJECT_NAME": "FENGYUN 1C DEB", "OBJECT_ID": "1999-025FT", "EPOCH": "2025-12-09T21:07:52.275360", "MEAN_MOTION": 13.98145437, "ECCENTRICITY": 0.00925, "INCLINATION": 99.4424, "RA_OF_ASC_NODE": 203.8731, "ARG_OF_PERICENTER": 206.8026, "MEAN_ANOMALY": 221.0502, "EPHEMERIS_TYPE": 0, "CLASSIFICATION_TYPE": "U", "NORAD_CAT_ID": 29873, "ELEMENT_SET_NO": 999, "REV_AT_EPOCH": 96275, "BSTAR": 0.00023552, "MEAN_MOTION_DOT": 3e-06, "MEAN_MOTION_DDOT": 0}, "tle": {"line1": "1 29873U 99025FT  25343.88046615  .00000300  00000+0  23552-3 0  9991", "line2": "2 29873  99.4424 203.8731 0092500 206.8026 221.0502 13.98145437962753"}}, "geometry": {"type": "Point", "coordinates": [-62.32961811243675, -80.53485272829477]}}, {"type": "Feature", "properties": {"norad_id": 29874, "name": "FENGYUN 1C DEB", "group": "fengyun-1c-debris", "lat": -27.556626936823072, "lon": 56.78084115361551, "alt_km": 867.1314067370004, "timestamp": "2025-12-10T04:57:29.890168+00:00", "meta": {"OBJECT_NAME": "FENGYUN 1C DEB", "OBJECT_ID": "1999-025FU", "EPOCH": "2025-12-09T06:43:04.168704", "MEAN_MOTION": 14.28722887, "ECCENTRICITY": 0.0105359, "INCLINATION": 98.3795, "RA_OF_ASC_NODE": 240.3017, "ARG_OF_PERICENTER": 0.7894, "MEAN_ANOMALY": 123.9634, "EPHEMERIS_TYPE": 0, "CLASSIFICATION_TYPE": "U", "NORAD_CAT_ID": 29874, "ELEMENT_SET_NO": 999, "REV_AT_EPOCH": 96798, "BSTAR": 0.0039953, "MEAN_MOTION_DOT": 0.00010643, "MEAN_MOTION_DDOT": 0}, "tle": {"line1": "1 29874U 99025FU  25343.27990936  .00010643  00000+0  39953-2 0  9991", "line2": "2 29874  98.3795 240.3017 0105359   0.7894 123.9634 14.28722887967987"}}, "geometry": {"type": "Point", "coordinates": [56.78084115361551, -27.556626936823072]}}, {"type": "Feature", "properties": {"norad_id": 29875, "name": "FENGYUN 1C DEB", "group": "fengyun-1c-debris", "lat": 81.57383817051618, "lon": -50.78862825666161, "alt_km": 744.774061823251, "timestamp": "2025-12-10T04:57:29.890178+00:00", "meta": {"OBJECT_NAME": "FENGYUN 1C DEB", "OBJECT_ID": "1999-025FV", "EPOCH": "2025-12-09T15:46:33.400128", "MEAN_MOTION": 14.24877868, "ECCENTRICITY": 0.0083237, "INCLINATION": 98.4056, "RA_OF_ASC_NODE": 35.2118, "ARG_OF_PERICENTER": 72.2137, "MEAN_ANOMALY": 81.093, "EPHEMERIS_TYPE": 0, "CLASSIFICATION_TYPE": "U", "NORAD_CAT_ID": 29875, "ELEMENT_SET_NO": 999, "REV_AT_EPOCH": 98278, "BSTAR": 4.8582e-05, "MEAN_MOTION_DOT": 7.7e-07, "MEAN_MOTION_DDOT": 0}, "tle": {"line1": "1 29875U 99025FV  25343.65733102  .00000077  00000+0  48582-4 0  9994", "line2": "2 29875  98.4056  35.2118 0083237  72.2137  81.0930 14.24877868982780"}}, "geometry": {"type": "Point", "coordinates": [-50.78862825666161, 81.57383817051618]}}, {"type": "Feature", "properties": {"norad_id": 29876, "name": "FENGYUN 1C DEB", "group": "fengyun-1c-debris", "lat": 25.550238224234413, "lon": 30.90746096466752, "alt_km": 779.0543346540744, "timestamp": "2025-12-10T04:57:29.890188+00:00", "meta": {"OBJECT_NAME": "FENGYUN 1C DEB", "OBJECT_ID": "1999-025FW", "EPOCH": "2025-12-09T10:18:49.803840", "MEAN_MOTION": 14.20294509, "ECCENTRICITY": 0.00616929, "INCLINATION": 98.3337, "RA_OF_ASC_NODE": 34.1935, "ARG_OF_PERICENTER": 26.9866, "MEAN_ANOMALY": 349.11, "EPHEMERIS_TYPE": 0, "CLASSIFICATION_TYPE": "U", "NORAD_CAT_ID": 29876, "ELEMENT_SET_NO": 999, "REV_AT_EPOCH": 97870, "BSTAR": 0.00023862286, "MEAN_MOTION_DOT": 4.8e-06, "MEAN_MOTION_DDOT": 0}, "tle": {"line1": "1 29876U 99025FW  25343.42974310  .00000480  00000+0  23862-3 0  9999", "line2": "2 29876  98.3337  34.1935 0061692  26.9866 349.1100 14.20294509978708"}}, "geometry": {"type": "Point", "coordinates": [30.90746096466752, 25.550238224234413]}}, {"type": "Feature", "properties": {"norad_id": 29877, "name": "FENGYUN 1C DEB", "group": "fengyun-1c-debris", "lat": -25.213269253814797, "lon": 165.53219510979244, "alt_km": 783.9669362209088, "timestamp": "2025-12-10T04:57:29.890199+00:00", "meta": {"OBJECT_NAME": "FENGYUN 1C DEB", "OBJECT_ID": "1999-025FX", "EPOCH": "2025-12-09T18:43:49.970208", "MEAN_MOTION": 14.24782414, "ECCENTRICITY": 0.0045733, "INCLINATION": 98.5371, "RA_OF_ASC_NODE": 349.1735, "ARG_OF_PERICENTER": 227.1536, "MEAN_ANOMALY": 313.8276, "EPHEMERIS_TYPE": 0, "CLASSIFICATION_TYPE": "U", "NORAD_CAT_ID": 29877, "ELEMENT_SET_NO": 999, "REV_AT_EPOCH": 97931, "BSTAR": 0.00078298, "MEAN_MOTION_DOT": 1.802e-05, "MEAN_MOTION_DDOT": 0}, "tle": {"line1": "1 29877U 99025FX  25343.78043947  .00001802  00000+0  78298-3 0  9994", "line2": "2 29877  98.5371 349.1735 0045733 227.1536 313.8276 14.24782414979314"}}, "geometry": {"type": "Point", "coordinates": [165.53219510979244, -25.213269253814797]}}]}